[{"OBJECT_NAME":"ONEWEB-0309","OBJECT_ID":"2021-075W","EPOCH":"2026-03-09T21:59:35.610432","MEAN_MOTION":13.17650441,"ECCENTRICITY":0.00022907,"INCLINATION":87.9159,"RA_OF_ASC_NODE":25.5741,"ARG_OF_PERICENTER":79.1159,"MEAN_ANOMALY":281.023,"EPHEMERIS_TYPE":0,"CLASSIFICATION_TYPE":"U","NORAD_CAT_ID":49095,"ELEMENT_SET_NO":999,"REV_AT_EPOCH":22050,"BSTAR":-0.0021732401,"MEAN_MOTION_DOT":-8.31e-6,"MEAN_MOTION_DDOT":0},{"OBJECT_NAME":"SL-14 DEB","OBJECT_ID":"1991-056CQ","EPOCH":"2026-03-09T08:17:04.738272","MEAN_MOTION":13.26878818,"ECCENTRICITY":0.00448902,"INCLINATION":82.615,"RA_OF_ASC_NODE":198.4344,"ARG_OF_PERICENTER":217.5523,"MEAN_ANOMALY":142.2467,"EPHEMERIS_TYPE":0,"CLASSIFICATION_TYPE":"U","NORAD_CAT_ID":45356,"ELEMENT_SET_NO":999,"REV_AT_EPOCH":29119,"BSTAR":0.0011928281,"MEAN_MOTION_DOT":5.47e-6,"MEAN_MOTION_DDOT":0}]
